[{"OBJECT_NAME":"STARLINK-2545","OBJECT_ID":"2021-036P","EPOCH":"2026-03-09T07:26:59.011008","MEAN_MOTION":15.30209224,"ECCENTRICITY":0.00010799,"INCLINATION":53.1594,"RA_OF_ASC_NODE":77.4373,"ARG_OF_PERICENTER":83.2666,"MEAN_ANOMALY":276.8457,"EPHEMERIS_TYPE":0,"CLASSIFICATION_TYPE":"U","NORAD_CAT_ID":48289,"ELEMENT_SET_NO":999,"REV_AT_EPOCH":26834,"BSTAR":1.7143398e-5,"MEAN_MOTION_DOT":1.49e-6,"MEAN_MOTION_DDOT":0},{"OBJECT_NAME":"CZ-6A DEB","OBJECT_ID":"2024-140BH","EPOCH":"2026-03-09T12:42:23.031936","MEAN_MOTION":15.05550408,"ECCENTRICITY":0.0121353,"INCLINATION":89.148,"RA_OF_ASC_NODE":290.4372,"ARG_OF_PERICENTER":169.3672,"MEAN_ANOMALY":191.0177,"EPHEMERIS_TYPE":0,"CLASSIFICATION_TYPE":"U","NORAD_CAT_ID":60656,"ELEMENT_SET_NO":999,"REV_AT_EPOCH":8464,"BSTAR":0.002338,"MEAN_MOTION_DOT":0.00039913,"MEAN_MOTION_DDOT":0}]
